[{"OBJECT_NAME":"FALCONSAT-10","OBJECT_ID":"2023-174AM","EPOCH":"2026-03-09T16:51:34.085376","MEAN_MOTION":15.26670596,"ECCENTRICITY":0.00089318,"INCLINATION":97.3865,"RA_OF_ASC_NODE":145.7938,"ARG_OF_PERICENTER":169.5942,"MEAN_ANOMALY":190.5483,"EPHEMERIS_TYPE":0,"CLASSIFICATION_TYPE":"U","NORAD_CAT_ID":58291,"ELEMENT_SET_NO":999,"REV_AT_EPOCH":12958,"BSTAR":0.00025968794,"MEAN_MOTION_DOT":6.748e-5,"MEAN_MOTION_DDOT":0},{"OBJECT_NAME":"STARLINK-32379","OBJECT_ID":"2024-202G","EPOCH":"2026-03-09T11:01:33.659904","MEAN_MOTION":15.27570727,"ECCENTRICITY":6.866e-5,"INCLINATION":42.9987,"RA_OF_ASC_NODE":227.9359,"ARG_OF_PERICENTER":260.6359,"MEAN_ANOMALY":99.4415,"EPHEMERIS_TYPE":0,"CLASSIFICATION_TYPE":"U","NORAD_CAT_ID":61851,"ELEMENT_SET_NO":999,"REV_AT_EPOCH":7542,"BSTAR":-1.639796e-5,"MEAN_MOTION_DOT":-7.13e-6,"MEAN_MOTION_DDOT":0}]
